{"type": "FeatureCollection", "features": [ {"type": "Feature", "properties": {"norad_id": 34001, "name": "COSMOS 2251 DEB", "group": "cosmos-2251-debris", "lat": -6.991858976381578, "lon": 87.97019638428239, "alt_km": 785.0183888223573, "timestamp": "2025-12-21T05:44:51.980712+00:00", "meta": {"OBJECT_NAME": "COSMOS 2251 DEB", "OBJECT_ID": "1993-036GL", "EPOCH": "2025-12-20T20:50:12.168096", "MEAN_MOTION": 14.37107294, "ECCENTRICITY": 0.00203105, "INCLINATION": 74.0389, "RA_OF_ASC_NODE": 266.6412, "ARG_OF_PERICENTER": 346.0834, "MEAN_ANOMALY": 81.0127, "EPHEMERIS_TYPE": 0, "CLASSIFICATION_TYPE": "U", "NORAD_CAT_ID": 34001, "ELEMENT_SET_NO": 999, "REV_AT_EPOCH": 88263, "BSTAR": 0.00013371335, "MEAN_MOTION_DOT": 3.72e-06, "MEAN_MOTION_DDOT": 0}, "tle": {"line1": "1 34001U 93036GL  25354.86819639  .00000372  00000+0  13371-3 0  9997", "line2": "2 34001  74.0389 266.6412 0020310 346.0834  81.0127 14.37107294882636"}}, "geometry": {"type": "Point", "coordinates": [87.97019638428239, -6.991858976381578]}}, {"type": "Feature", "properties": {"norad_id": 34003, "name": "COSMOS 2251 DEB", "group": "cosmos-2251-debris", "lat": -67.48384276746529, "lon": 134.35674359909592, "alt_km": 1073.7262971101736, "timestamp": "2025-12-21T05:44:51.980722+00:00", "meta": {"OBJECT_NAME": "COSMOS 2251 DEB", "OBJECT_ID": "1993-036GN", "EPOCH": "2025-12-20T04:14:07.272384", "MEAN_MOTION": 13.84190171, "ECCENTRICITY": 0.02749023, "INCLINATION": 74.0776, "RA_OF_ASC_NODE": 272.6258, "ARG_OF_PERICENTER": 22.9254, "MEAN_ANOMALY": 338.3868, "EPHEMERIS_TYPE": 0, "CLASSIFICATION_TYPE": "U", "NORAD_CAT_ID": 34003, "ELEMENT_SET_NO": 999, "REV_AT_EPOCH": 84528, "BSTAR": 0.0014188071, "MEAN_MOTION_DOT": 2.098e-05, "MEAN_MOTION_DDOT": 0}, "tle": {"line1": "1 34003U 93036GN  25354.17647306  .00002098  00000+0  14188-2 0  9996", "line2": "2 34003  74.0776 272.6258 0274902  22.9254 338.3868 13.84190171845284"}}, "geometry": {"type": "Point", "coordinates": [134.35674359909592, -67.48384276746529]}}, {"type": "Feature", "properties": {"norad_id": 34004, "name": "COSMOS 2251 DEB", "group": "cosmos-2251-debris", "lat": 70.46932464602835, "lon": -9.026827726460034, "alt_km": 736.7850125478535, "timestamp": "2025-12-21T05:44:51.980732+00:00", "meta": {"OBJECT_NAME": "COSMOS 2251 DEB", "OBJECT_ID": "1993-036GP", "EPOCH": "2025-12-20T21:06:06.753312", "MEAN_MOTION": 14.49076705, "ECCENTRICITY": 0.00334308, "INCLINATION": 74.0359, "RA_OF_ASC_NODE": 297.846, "ARG_OF_PERICENTER": 309.1756, "MEAN_ANOMALY": 50.6435, "EPHEMERIS_TYPE": 0, "CLASSIFICATION_TYPE": "U", "NORAD_CAT_ID": 34004, "ELEMENT_SET_NO": 999, "REV_AT_EPOCH": 88148, "BSTAR": 0.00079182782, "MEAN_MOTION_DOT": 3.002e-05, "MEAN_MOTION_DDOT": 0}, "tle": {"line1": "1 34004U 93036GP  25354.87924483  .00003002  00000+0  79183-3 0  9991", "line2": "2 34004  74.0359 297.8460 0033430 309.1756  50.6435 14.49076705881486"}}, "geometry": {"type": "Point", "coordinates": [-9.026827726460034, 70.46932464602835]}}, {"type": "Feature", "properties": {"norad_id": 34005, "name": "COSMOS 2251 DEB", "group": "cosmos-2251-debris", "lat": 73.2735515168382, "lon": -89.87170842667608, "alt_km": 759.8227119954327, "timestamp": "2025-12-21T05:44:51.980742+00:00", "meta": {"OBJECT_NAME": "COSMOS 2251 DEB", "OBJECT_ID": "1993-036GQ", "EPOCH": "2025-12-19T07:28:53.752800", "MEAN_MOTION": 14.4030881, "ECCENTRICITY": 0.0021069, "INCLINATION": 74.0437, "RA_OF_ASC_NODE": 201.5051, "ARG_OF_PERICENTER": 318.6209, "MEAN_ANOMALY": 214.5502, "EPHEMERIS_TYPE": 0, "CLASSIFICATION_TYPE": "U", "NORAD_CAT_ID": 34005, "ELEMENT_SET_NO": 999, "REV_AT_EPOCH": 88473, "BSTAR": 8.2213e-05, "MEAN_MOTION_DOT": 2.35e-06, "MEAN_MOTION_DDOT": 0}, "tle": {"line1": "1 34005U 93036GQ  25353.31173325  .00000235  00000+0  82213-4 0  9995", "line2": "2 34005  74.0437 201.5051 0021069 318.6209 214.5502 14.40308810884738"}}, "geometry": {"type": "Point", "coordinates": [-89.87170842667608, 73.2735515168382]}}, {"type": "Feature", "properties": {"norad_id": 34006, "name": "COSMOS 2251 DEB", "group": "cosmos-2251-debris", "lat": -41.2666109590037, "lon": -39.30758561766734, "alt_km": 595.3062007798471, "timestamp": "2025-12-21T05:44:51.980752+00:00", "meta": {"OBJECT_NAME": "COSMOS 2251 DEB", "OBJECT_ID": "1993-036GR", "EPOCH": "2025-12-20T19:47:12.837696", "MEAN_MOTION": 14.95251642, "ECCENTRICITY": 0.00114061, "INCLINATION": 74.0538, "RA_OF_ASC_NODE": 126.9979, "ARG_OF_PERICENTER": 62.7264, "MEAN_ANOMALY": 87.2874, "EPHEMERIS_TYPE": 0, "CLASSIFICATION_TYPE": "U", "NORAD_CAT_ID": 34006, "ELEMENT_SET_NO": 999, "REV_AT_EPOCH": 88789, "BSTAR": 0.0020504821, "MEAN_MOTION_DOT": 0.00022635, "MEAN_MOTION_DDOT": 0}, "tle": {"line1": "1 34006U 93036GR  25354.82445414  .00022635  00000+0  20505-2 0  9996", "line2": "2 34006  74.0538 126.9979 0011406  62.7264  87.2874 14.95251642887899"}}, "geometry": {"type": "Point", "coordinates": [-39.30758561766734, -41.2666109590037]}}, {"type": "Feature", "properties": {"norad_id": 34007, "name": "COSMOS 2251 DEB", "group": "cosmos-2251-debris", "lat": -41.52764301225602, "lon": -44.168351332228845, "alt_km": 709.7460445856223, "timestamp": "2025-12-21T05:44:51.980762+00:00", "meta": {"OBJECT_NAME": "COSMOS 2251 DEB", "OBJECT_ID": "1993-036GS", "EPOCH": "2025-12-20T21:45:07.086528", "MEAN_MOTION": 14.64836871, "ECCENTRICITY": 0.00442495, "INCLINATION": 74.019, "RA_OF_ASC_NODE": 331.1745, "ARG_OF_PERICENTER": 103.4436, "MEAN_ANOMALY": 257.1669, "EPHEMERIS_TYPE": 0, "CLASSIFICATION_TYPE": "U", "NORAD_CAT_ID": 34007, "ELEMENT_SET_NO": 999, "REV_AT_EPOCH": 89199, "BSTAR": 0.00045486536, "MEAN_MOTION_DOT": 2.433e-05, "MEAN_MOTION_DDOT": 0}, "tle": {"line1": "1 34007U 93036GS  25354.90633202  .00002433  00000+0  45487-3 0  9991", "line2": "2 34007  74.0190 331.1745 0044249 103.4436 257.1669 14.64836871891995"}}, "geometry": {"type": "Point", "coordinates": [-44.168351332228845, -41.52764301225602]}}, {"type": "Feature", "properties": {"norad_id": 34008, "name": "COSMOS 2251 DEB", "group": "cosmos-2251-debris", "lat": 44.830836453881155, "lon": 118.45000412023505, "alt_km": 794.5672276552905, "timestamp": "2025-12-21T05:44:51.980772+00:00", "meta": {"OBJECT_NAME": "COSMOS 2251 DEB", "OBJECT_ID": "1993-036GT", "EPOCH": "2025-12-20T16:32:52.546848", "MEAN_MOTION": 14.33151201, "ECCENTRICITY": 0.00245603, "INCLINATION": 74.0346, "RA_OF_ASC_NODE": 315.9891, "ARG_OF_PERICENTER": 309.9267, "MEAN_ANOMALY": 226.3857, "EPHEMERIS_TYPE": 0, "CLASSIFICATION_TYPE": "U", "NORAD_CAT_ID": 34008, "ELEMENT_SET_NO": 999, "REV_AT_EPOCH": 88078, "BSTAR": 8.2776581e-05, "MEAN_MOTION_DOT": 2.02e-06, "MEAN_MOTION_DDOT": 0}, "tle": {"line1": "1 34008U 93036GT  25354.68949707  .00000202  00000+0  82777-4 0  9993", "line2": "2 34008  74.0346 315.9891 0024560 309.9267 226.3857 14.33151201880785"}}, "geometry": {"type": "Point", "coordinates": [118.45000412023505, 44.830836453881155]}}, {"type": "Feature", "properties": {"norad_id": 34009, "name": "COSMOS 2251 DEB", "group": "cosmos-2251-debris", "lat": 8.301668323615296, "lon": 139.01005211687107, "alt_km": 797.6641655173426, "timestamp": "2025-12-21T05:44:51.980782+00:00", "meta": {"OBJECT_NAME": "COSMOS 2251 DEB", "OBJECT_ID": "1993-036GU", "EPOCH": "2025-12-20T09:25:26.896224", "MEAN_MOTION": 14.33227925, "ECCENTRICITY": 0.00267932, "INCLINATION": 74.0374, "RA_OF_ASC_NODE": 322.9505, "ARG_OF_PERICENTER": 30.3083, "MEAN_ANOMALY": 93.2477, "EPHEMERIS_TYPE": 0, "CLASSIFICATION_TYPE": "U", "NORAD_CAT_ID": 34009, "ELEMENT_SET_NO": 999, "REV_AT_EPOCH": 88055, "BSTAR": 0.00010774711, "MEAN_MOTION_DOT": 2.71e-06, "MEAN_MOTION_DDOT": 0}, "tle": {"line1": "1 34009U 93036GU  25354.39267241  .00000271  00000+0  10775-3 0  9992", "line2": "2 34009  74.0374 322.9505 0026793  30.3083  93.2477 14.33227925880559"}}, "geometry": {"type": "Point", "coordinates": [139.01005211687107, 8.301668323615296]}}, {"type": "Feature", "properties": {"norad_id": 34010, "name": "COSMOS 2251 DEB", "group": "cosmos-2251-debris", "lat": 21.331044593653385, "lon": 79.03438627691084, "alt_km": 505.9625486901623, "timestamp": "2025-12-21T05:44:51.980792+00:00", "meta": {"OBJECT_NAME": "COSMOS 2251 DEB", "OBJECT_ID": "1993-036GV", "EPOCH": "2025-12-20T21:09:31.100544", "MEAN_MOTION": 15.19954596, "ECCENTRICITY": 0.00044895, "INCLINATION": 73.9993, "RA_OF_ASC_NODE": 266.2199, "ARG_OF_PERICENTER": 58.4815, "MEAN_ANOMALY": 301.682, "EPHEMERIS_TYPE": 0, "CLASSIFICATION_TYPE": "U", "NORAD_CAT_ID": 34010, "ELEMENT_SET_NO": 999, "REV_AT_EPOCH": 89409, "BSTAR": 0.0026085699, "MEAN_MOTION_DOT": 0.00056548, "MEAN_MOTION_DDOT": 0}, "tle": {"line1": "1 34010U 93036GV  25354.88160996  .00056548  00000+0  26086-2 0  9996", "line2": "2 34010  73.9993 266.2199 0004489  58.4815 301.6820 15.19954596894095"}}, "geometry": {"type": "Point", "coordinates": [79.03438627691084, 21.331044593653385]}}, {"type": "Feature", "properties": {"norad_id": 34011, "name": "COSMOS 2251 DEB", "group": "cosmos-2251-debris", "lat": 70.36365866224881, "lon": 7.833487711541219, "alt_km": 726.5185210273394, "timestamp": "2025-12-21T05:44:51.980802+00:00", "meta": {"OBJECT_NAME": "COSMOS 2251 DEB", "OBJECT_ID": "1993-036GW", "EPOCH": "2025-12-20T21:03:41.222880", "MEAN_MOTION": 14.41804306, "ECCENTRICITY": 0.0036046, "INCLINATION": 74.0145, "RA_OF_ASC_NODE": 315.0473, "ARG_OF_PERICENTER": 36.2778, "MEAN_ANOMALY": 324.0811, "EPHEMERIS_TYPE": 0, "CLASSIFICATION_TYPE": "U", "NORAD_CAT_ID": 34011, "ELEMENT_SET_NO": 999, "REV_AT_EPOCH": 88033, "BSTAR": 0.0005124314, "MEAN_MOTION_DOT": 1.661e-05, "MEAN_MOTION_DDOT": 0}, "tle": {"line1": "1 34011U 93036GW  25354.87756045  .00001661  00000+0  51243-3 0  9992", "line2": "2 34011  74.0145 315.0473 0036046  36.2778 324.0811 14.41804306880339"}}, "geometry": {"type": "Point", "coordinates": [7.833487711541219, 70.36365866224881]}}]}